[{"OBJECT_NAME":"YAOGAN-50 01","OBJECT_ID":"2026-006A","EPOCH":"2026-03-09T21:57:44.750592","MEAN_MOTION":13.83251108,"ECCENTRICITY":0.00011096,"INCLINATION":142.0346,"RA_OF_ASC_NODE":96.0351,"ARG_OF_PERICENTER":270.9545,"MEAN_ANOMALY":89.1047,"EPHEMERIS_TYPE":0,"CLASSIFICATION_TYPE":"U","NORAD_CAT_ID":67433,"ELEMENT_SET_NO":999,"REV_AT_EPOCH":768,"BSTAR":0.00014147475,"MEAN_MOTION_DOT":3.45e-6,"MEAN_MOTION_DDOT":0},{"OBJECT_NAME":"FENGYUN 1C DEB","OBJECT_ID":"1999-025AAR","EPOCH":"2026-03-09T10:27:21.960576","MEAN_MOTION":13.82426666,"ECCENTRICITY":0.01868765,"INCLINATION":98.8949,"RA_OF_ASC_NODE":60.9171,"ARG_OF_PERICENTER":311.8254,"MEAN_ANOMALY":204.0171,"EPHEMERIS_TYPE":0,"CLASSIFICATION_TYPE":"U","NORAD_CAT_ID":30330,"ELEMENT_SET_NO":999,"REV_AT_EPOCH":95855,"BSTAR":0.0018223807,"MEAN_MOTION_DOT":2.211e-5,"MEAN_MOTION_DDOT":0}]
